[
    {
        "Altitude(m)": 706733.9379397286,
        "Argument of Periapsis(deg)": 0.009112096949301655,
        "Eccentricity": 0.0,
        "Inclination(deg)": 45.0,
        "Latitude(deg)": 42.57821212458225,
        "Longitude(deg)": 143.3362235533168,
        "Mean Anomaly(deg)": 107.40837331798464,
        "RAAN(deg)": 129.99139844683344,
        "Satellite Name": "Constellation 1 578",
        "Satellite Number": 578,
        "Semi-Major Axis(m)": 7083131.272910544,
        "Time(s)": 152
    },
    {
        "Altitude(m)": 706730.0725054751,
        "Argument of Periapsis(deg)": 0.009172044955547059,
        "Eccentricity": 0.0,
        "Inclination(deg)": 45.0,
        "Latitude(deg)": 42.56071783821077,
        "Longitude(deg)": 143.41090057834128,
        "Mean Anomaly(deg)": 107.46907445823453,
        "RAAN(deg)": 129.9913418576679,
        "Satellite Name": "Constellation 1 578",
        "Satellite Number": 578,
        "Semi-Major Axis(m)": 7083131.272910544,
        "Time(s)": 153
    },
    {
        "Altitude(m)": 706726.1958568325,
        "Argument of Periapsis(deg)": 0.009231992961792466,
        "Eccentricity": 0.0,
        "Inclination(deg)": 45.0,
        "Latitude(deg)": 42.54316937936925,
        "Longitude(deg)": 143.48553355956625,
        "Mean Anomaly(deg)": 107.52977559848445,
        "RAAN(deg)": 129.9912852685023,
        "Satellite Name": "Constellation 1 578",
        "Satellite Number": 578,
        "Semi-Major Axis(m)": 7083131.272910544,
        "Time(s)": 154
    },
    {
        "Altitude(m)": 706722.3080168794,
        "Argument of Periapsis(deg)": 0.009291940968037872,
        "Eccentricity": 0.0,
        "Inclination(deg)": 45.0,
        "Latitude(deg)": 42.52556681100168,
        "Longitude(deg)": 143.56012241285924,
        "Mean Anomaly(deg)": 107.59047673873434,
        "RAAN(deg)": 129.99122867933676,
        "Satellite Name": "Constellation 1 578",
        "Satellite Number": 578,
        "Semi-Major Axis(m)": 7083131.272910544,
        "Time(s)": 155
    },
    {
        "Altitude(m)": 706718.409008777,
        "Argument of Periapsis(deg)": 0.009351888974283276,
        "Eccentricity": 0.0,
        "Inclination(deg)": 45.0,
        "Latitude(deg)": 42.50791019615544,
        "Longitude(deg)": 143.6346668865539,
        "Mean Anomaly(deg)": 107.65117787898426,
        "RAAN(deg)": 129.99117209017115,
        "Satellite Name": "Constellation 1 578",
        "Satellite Number": 578,
        "Semi-Major Axis(m)": 7083131.272910544,
        "Time(s)": 156
    },
    {
        "Altitude(m)": 706714.4988557451,
        "Argument of Periapsis(deg)": 0.00941183698052868,
        "Eccentricity": 0.0,
        "Inclination(deg)": 45.0,
        "Latitude(deg)": 42.49019959797969,
        "Longitude(deg)": 143.70916723383854,
        "Mean Anomaly(deg)": 107.71187901923419,
        "RAAN(deg)": 129.9911155010056,
        "Satellite Name": "Constellation 1 578",
        "Satellite Number": 578,
        "Semi-Major Axis(m)": 7083131.272910544,
        "Time(s)": 157
    },
    {
        "Altitude(m)": 706710.577581079,
        "Argument of Periapsis(deg)": 0.009471784986774088,
        "Eccentricity": 0.0,
        "Inclination(deg)": 45.0,
        "Latitude(deg)": 42.472435079725685,
        "Longitude(deg)": 143.78362320417278,
        "Mean Anomaly(deg)": 107.77258015948408,
        "RAAN(deg)": 129.99105891184,
        "Satellite Name": "Constellation 1 578",
        "Satellite Number": 578,
        "Semi-Major Axis(m)": 7083131.272910544,
        "Time(s)": 158
    },
    {
        "Altitude(m)": 706706.6452081352,
        "Argument of Periapsis(deg)": 0.009531732993019492,
        "Eccentricity": 0.0,
        "Inclination(deg)": 45.0,
        "Latitude(deg)": 42.45461670474506,
        "Longitude(deg)": 143.85803471567564,
        "Mean Anomaly(deg)": 107.83328129973393,
        "RAAN(deg)": 129.99100232267446,
        "Satellite Name": "Constellation 1 578",
        "Satellite Number": 578,
        "Semi-Major Axis(m)": 7083131.272910544,
        "Time(s)": 159
    },
    {
        "Altitude(m)": 706702.7017603505,
        "Argument of Periapsis(deg)": 0.009591680999264898,
        "Eccentricity": 0.0,
        "Inclination(deg)": 45.0,
        "Latitude(deg)": 42.43674453648916,
        "Longitude(deg)": 143.93240168702863,
        "Mean Anomaly(deg)": 107.89398243998382,
        "RAAN(deg)": 129.99094573350888,
        "Satellite Name": "Constellation 1 578",
        "Satellite Number": 578,
        "Semi-Major Axis(m)": 7083131.272910544,
        "Time(s)": 160
    },
    {
        "Altitude(m)": 706698.747261219,
        "Argument of Periapsis(deg)": 0.009651629005510304,
        "Eccentricity": 0.0,
        "Inclination(deg)": 45.0,
        "Latitude(deg)": 42.4188186385081,
        "Longitude(deg)": 144.00672403747498,
        "Mean Anomaly(deg)": 107.95468358023375,
        "RAAN(deg)": 129.99088914434333,
        "Satellite Name": "Constellation 1 578",
        "Satellite Number": 578,
        "Semi-Major Axis(m)": 7083131.272910544,
        "Time(s)": 161
    },
    {
        "Altitude(m)": 706694.7817343146,
        "Argument of Periapsis(deg)": 0.00971157701175571,
        "Eccentricity": 0.0,
        "Inclination(deg)": 45.0,
        "Latitude(deg)": 42.400839074449955,
        "Longitude(deg)": 144.08100168681946,
        "Mean Anomaly(deg)": 108.01538472048367,
        "RAAN(deg)": 129.99083255517775,
        "Satellite Name": "Constellation 1 578",
        "Satellite Number": 578,
        "Semi-Major Axis(m)": 7083131.272910544,
        "Time(s)": 162
    },
    {
        "Altitude(m)": 706690.8052032691,
        "Argument of Periapsis(deg)": 0.009771525018001118,
        "Eccentricity": 0.0,
        "Inclination(deg)": 45.0,
        "Latitude(deg)": 42.382805908060085,
        "Longitude(deg)": 144.15523438733064,
        "Mean Anomaly(deg)": 108.0760858607335,
        "RAAN(deg)": 129.99077596601217,
        "Satellite Name": "Constellation 1 578",
        "Satellite Number": 578,
        "Semi-Major Axis(m)": 7083131.272910544,
        "Time(s)": 163
    },
    {
        "Altitude(m)": 706686.8176917904,
        "Argument of Periapsis(deg)": 0.00983147302424652,
        "Eccentricity": 0.0,
        "Inclination(deg)": 45.0,
        "Latitude(deg)": 42.36471920317921,
        "Longitude(deg)": 144.22942239613005,
        "Mean Anomaly(deg)": 108.13678700098347,
        "RAAN(deg)": 129.9907193768466,
        "Satellite Name": "Constellation 1 578",
        "Satellite Number": 578,
        "Semi-Major Axis(m)": 7083131.272910544,
        "Time(s)": 164
    },
    {
        "Altitude(m)": 706682.8192236511,
        "Argument of Periapsis(deg)": 0.009891421030491928,
        "Eccentricity": 0.0,
        "Inclination(deg)": 45.0,
        "Latitude(deg)": 42.346579023744184,
        "Longitude(deg)": 144.30356546660752,
        "Mean Anomaly(deg)": 108.19748814123334,
        "RAAN(deg)": 129.99066278768103,
        "Satellite Name": "Constellation 1 578",
        "Satellite Number": 578,
        "Semi-Major Axis(m)": 7083131.272910544,
        "Time(s)": 165
    },
    {
        "Altitude(m)": 706678.8098226973,
        "Argument of Periapsis(deg)": 0.009951369036737332,
        "Eccentricity": 0.0,
        "Inclination(deg)": 45.0,
        "Latitude(deg)": 42.32838543378583,
        "Longitude(deg)": 144.3776635208106,
        "Mean Anomaly(deg)": 108.25818928148324,
        "RAAN(deg)": 129.99060619851548,
        "Satellite Name": "Constellation 1 578",
        "Satellite Number": 578,
        "Semi-Major Axis(m)": 7083131.272910544,
        "Time(s)": 166
    },
    {
        "Altitude(m)": 706674.78951284,
        "Argument of Periapsis(deg)": 0.010011317042982738,
        "Eccentricity": 0.0,
        "Inclination(deg)": 45.0,
        "Latitude(deg)": 42.31013849742862,
        "Longitude(deg)": 144.4517164813462,
        "Mean Anomaly(deg)": 108.31889042173314,
        "RAAN(deg)": 129.99054960934987,
        "Satellite Name": "Constellation 1 578",
        "Satellite Number": 578,
        "Semi-Major Axis(m)": 7083131.272910544,
        "Time(s)": 167
    },
    {
        "Altitude(m)": 706670.7583180513,
        "Argument of Periapsis(deg)": 0.010071265049228144,
        "Eccentricity": 0.0,
        "Inclination(deg)": 45.0,
        "Latitude(deg)": 42.291838278889585,
        "Longitude(deg)": 144.52572427138074,
        "Mean Anomaly(deg)": 108.37959156198303,
        "RAAN(deg)": 129.99049302018432,
        "Satellite Name": "Constellation 1 578",
        "Satellite Number": 578,
        "Semi-Major Axis(m)": 7083131.272910544,
        "Time(s)": 168
    },
    {
        "Altitude(m)": 706666.7162623847,
        "Argument of Periapsis(deg)": 0.01013121305547355,
        "Eccentricity": 0.0,
        "Inclination(deg)": 45.0,
        "Latitude(deg)": 42.27348484247747,
        "Longitude(deg)": 144.59968681463954,
        "Mean Anomaly(deg)": 108.44029270223291,
        "RAAN(deg)": 129.99043643101876,
        "Satellite Name": "Constellation 1 578",
        "Satellite Number": 578,
        "Semi-Major Axis(m)": 7083131.272910544,
        "Time(s)": 169
    },
    {
        "Altitude(m)": 706662.6633699528,
        "Argument of Periapsis(deg)": 0.010191161061718957,
        "Eccentricity": 0.0,
        "Inclination(deg)": 45.0,
        "Latitude(deg)": 42.255078252592,
        "Longitude(deg)": 144.6736040354062,
        "Mean Anomaly(deg)": 108.50099384248283,
        "RAAN(deg)": 129.99037984185318,
        "Satellite Name": "Constellation 1 578",
        "Satellite Number": 578,
        "Semi-Major Axis(m)": 7083131.272910544,
        "Time(s)": 170
    }
]